{
  "type": "FeatureCollection",
  "features": [
    {
      "type": "Feature",
      "properties": {
        "norad_id": 40796,
        "name": "COSMOS 2251 DEB",
        "group": "cosmos-2251-debris",
        "lat": -72.49319259590911,
        "lon": -2.262989865807597,
        "alt_km": 592.6185458728787,
        "timestamp": "2025-12-27T19:21:59.143130+00:00",
        "meta_object_name": "COSMOS 2251 DEB",
        "meta_object_id": "1993-036BVZ",
        "meta_epoch": "2025-12-26T16:33:35.172288",
        "meta_mean_motion": 14.81907149,
        "meta_eccentricity": 0.00559242,
        "meta_inclination": 74.013,
        "meta_ra_of_asc_node": 114.5925,
        "meta_arg_of_pericenter": 248.8524,
        "meta_mean_anomaly": 177.4514,
        "meta_ephemeris_type": 0,
        "meta_classification_type": "U",
        "meta_norad_cat_id": 40796,
        "meta_element_set_no": 999,
        "meta_rev_at_epoch": 76365,
        "meta_bstar": 0.0011252673,
        "meta_mean_motion_dot": 9.13e-05,
        "meta_mean_motion_ddot": 0,
        "tle_line1": "1 40796U 93036BVZ 25360.68999042  .00009130  00000+0  11253-2 0  9996",
        "tle_line2": "2 40796  74.0130 114.5925 0055924 248.8524 177.4514 14.81907149763658"
      },
      "geometry": {
        "type": "Point",
        "coordinates": [
          -2.262989865807597,
          -72.49319259590911
        ]
      }
    },
    {
      "type": "Feature",
      "properties": {
        "norad_id": 40797,
        "name": "COSMOS 2251 DEB",
        "group": "cosmos-2251-debris",
        "lat": 38.08825237127214,
        "lon": -129.15761096081948,
        "alt_km": 576.9605082408552,
        "timestamp": "2025-12-27T19:21:59.143139+00:00",
        "meta_object_name": "COSMOS 2251 DEB",
        "meta_object_id": "1993-036BWA",
        "meta_epoch": "2025-12-27T10:48:24.706080",
        "meta_mean_motion": 15.11668045,
        "meta_eccentricity": 0.0072507,
        "meta_inclination": 73.92,
        "meta_ra_of_asc_node": 64.652,
        "meta_arg_of_pericenter": 332.685,
        "meta_mean_anomaly": 27.0535,
        "meta_ephemeris_type": 0,
        "meta_classification_type": "U",
        "meta_norad_cat_id": 40797,
        "meta_element_set_no": 999,
        "meta_rev_at_epoch": 64866,
        "meta_bstar": 0.0008209,
        "meta_mean_motion_dot": 0.00014869,
        "meta_mean_motion_ddot": 0,
        "tle_line1": "1 40797U 93036BWA 25361.45028595  .00014869  00000+0  82090-3 0  9992",
        "tle_line2": "2 40797  73.9200  64.6520 0072507 332.6850  27.0535 15.11668045648660"
      },
      "geometry": {
        "type": "Point",
        "coordinates": [
          -129.15761096081948,
          38.08825237127214
        ]
      }
    },
    {
      "type": "Feature",
      "properties": {
        "norad_id": 40799,
        "name": "COSMOS 2251 DEB",
        "group": "cosmos-2251-debris",
        "lat": 63.19383935614527,
        "lon": 102.48182274260414,
        "alt_km": 613.5148358983688,
        "timestamp": "2025-12-27T19:21:59.143147+00:00",
        "meta_object_name": "COSMOS 2251 DEB",
        "meta_object_id": "1993-036BWC",
        "meta_epoch": "2025-12-26T10:58:52.007232",
        "meta_mean_motion": 14.96790134,
        "meta_eccentricity": 0.0119466,
        "meta_inclination": 73.9261,
        "meta_ra_of_asc_node": 70.4321,
        "meta_arg_of_pericenter": 309.4146,
        "meta_mean_anomaly": 49.6507,
        "meta_ephemeris_type": 0,
        "meta_classification_type": "U",
        "meta_norad_cat_id": 40799,
        "meta_element_set_no": 999,
        "meta_rev_at_epoch": 50182,
        "meta_bstar": 0.00039326,
        "meta_mean_motion_dot": 5.163e-05,
        "meta_mean_motion_ddot": 0,
        "tle_line1": "1 40799U 93036BWC 25360.45754638  .00005163  00000+0  39326-3 0  9998",
        "tle_line2": "2 40799  73.9261  70.4321 0119466 309.4146  49.6507 14.96790134501821"
      },
      "geometry": {
        "type": "Point",
        "coordinates": [
          102.48182274260414,
          63.19383935614527
        ]
      }
    },
    {
      "type": "Feature",
      "properties": {
        "norad_id": 40802,
        "name": "COSMOS 2251 DEB",
        "group": "cosmos-2251-debris",
        "lat": 17.92453002673882,
        "lon": -61.85822647427199,
        "alt_km": 612.7500347129926,
        "timestamp": "2025-12-27T19:21:59.143156+00:00",
        "meta_object_name": "COSMOS 2251 DEB",
        "meta_object_id": "1993-036BWF",
        "meta_epoch": "2025-12-23T15:31:23.351520",
        "meta_mean_motion": 14.77722867,
        "meta_eccentricity": 0.00628376,
        "meta_inclination": 74.0411,
        "meta_ra_of_asc_node": 131.6125,
        "meta_arg_of_pericenter": 228.2814,
        "meta_mean_anomaly": 131.2977,
        "meta_ephemeris_type": 0,
        "meta_classification_type": "U",
        "meta_norad_cat_id": 40802,
        "meta_element_set_no": 999,
        "meta_rev_at_epoch": 64570,
        "meta_bstar": 0.00086100359,
        "meta_mean_motion_dot": 6.349e-05,
        "meta_mean_motion_ddot": 0,
        "tle_line1": "1 40802U 93036BWF 25357.64679805  .00006349  00000+0  86100-3 0  9991",
        "tle_line2": "2 40802  74.0411 131.6125 0062837 228.2814 131.2977 14.77722867645708"
      },
      "geometry": {
        "type": "Point",
        "coordinates": [
          -61.85822647427199,
          17.92453002673882
        ]
      }
    },
    {
      "type": "Feature",
      "properties": {
        "norad_id": 40803,
        "name": "COSMOS 2251 DEB",
        "group": "cosmos-2251-debris",
        "lat": 40.862466624670496,
        "lon": 37.84523353144802,
        "alt_km": 739.5842419195815,
        "timestamp": "2025-12-27T19:21:59.143165+00:00",
        "meta_object_name": "COSMOS 2251 DEB",
        "meta_object_id": "1993-036BWG",
        "meta_epoch": "2025-12-24T20:03:27.634464",
        "meta_mean_motion": 14.51846049,
        "meta_eccentricity": 0.00342953,
        "meta_inclination": 74.0134,
        "meta_ra_of_asc_node": 29.0874,
        "meta_arg_of_pericenter": 243.7253,
        "meta_mean_anomaly": 116.0383,
        "meta_ephemeris_type": 0,
        "meta_classification_type": "U",
        "meta_norad_cat_id": 40803,
        "meta_element_set_no": 999,
        "meta_rev_at_epoch": 58928,
        "meta_bstar": 0.00027268389,
        "meta_mean_motion_dot": 1.077e-05,
        "meta_mean_motion_ddot": 0,
        "tle_line1": "1 40803U 93036BWG 25358.83573651  .00001077  00000+0  27268-3 0  9999",
        "tle_line2": "2 40803  74.0134  29.0874 0034295 243.7253 116.0383 14.51846049589281"
      },
      "geometry": {
        "type": "Point",
        "coordinates": [
          37.84523353144802,
          40.862466624670496
        ]
      }
    },
    {
      "type": "Feature",
      "properties": {
        "norad_id": 40808,
        "name": "COSMOS 2251 DEB",
        "group": "cosmos-2251-debris",
        "lat": 73.84089670568339,
        "lon": -144.56937514357654,
        "alt_km": 657.8417724233568,
        "timestamp": "2025-12-27T19:21:59.143174+00:00",
        "meta_object_name": "COSMOS 2251 DEB",
        "meta_object_id": "1993-036BWM",
        "meta_epoch": "2025-12-27T01:45:15.935040",
        "meta_mean_motion": 14.67741077,
        "meta_eccentricity": 0.0007818,
        "meta_inclination": 74.0418,
        "meta_ra_of_asc_node": 117.7977,
        "meta_arg_of_pericenter": 151.4581,
        "meta_mean_anomaly": 25.2255,
        "meta_ephemeris_type": 0,
        "meta_classification_type": "U",
        "meta_norad_cat_id": 40808,
        "meta_element_set_no": 999,
        "meta_rev_at_epoch": 63829,
        "meta_bstar": 0.0021180369,
        "meta_mean_motion_dot": 0.00012066,
        "meta_mean_motion_ddot": 0,
        "tle_line1": "1 40808U 93036BWM 25361.07310110  .00012066  00000+0  21180-2 0  9999",
        "tle_line2": "2 40808  74.0418 117.7977 0007818 151.4581  25.2255 14.67741077638297"
      },
      "geometry": {
        "type": "Point",
        "coordinates": [
          -144.56937514357654,
          73.84089670568339
        ]
      }
    },
    {
      "type": "Feature",
      "properties": {
        "norad_id": 40810,
        "name": "COSMOS 2251 DEB",
        "group": "cosmos-2251-debris",
        "lat": -65.33035410779621,
        "lon": -95.40242851911096,
        "alt_km": 696.5483636209601,
        "timestamp": "2025-12-27T19:21:59.143183+00:00",
        "meta_object_name": "COSMOS 2251 DEB",
        "meta_object_id": "1993-036BWP",
        "meta_epoch": "2025-12-23T03:56:49.945344",
        "meta_mean_motion": 14.58782513,
        "meta_eccentricity": 0.00180471,
        "meta_inclination": 74.0361,
        "meta_ra_of_asc_node": 54.8832,
        "meta_arg_of_pericenter": 205.863,
        "meta_mean_anomaly": 154.1635,
        "meta_ephemeris_type": 0,
        "meta_classification_type": "U",
        "meta_norad_cat_id": 40810,
        "meta_element_set_no": 999,
        "meta_rev_at_epoch": 61835,
        "meta_bstar": 0.0007215593,
        "meta_mean_motion_dot": 3.351e-05,
        "meta_mean_motion_ddot": 0,
        "tle_line1": "1 40810U 93036BWP 25357.16446696  .00003351  00000+0  72156-3 0  9993",
        "tle_line2": "2 40810  74.0361  54.8832 0018047 205.8630 154.1635 14.58782513618352"
      },
      "geometry": {
        "type": "Point",
        "coordinates": [
          -95.40242851911096,
          -65.33035410779621
        ]
      }
    }
  ]
}